OBJECT_NAME,OBJECT_ID,EPOCH,MEAN_MOTION,ECCENTRICITY,INCLINATION,RA_OF_ASC_NODE,ARG_OF_PERICENTER,MEAN_ANOMALY,EPHEMERIS_TYPE,CLASSIFICATION_TYPE,NORAD_CAT_ID,ELEMENT_SET_NO,REV_AT_EPOCH,BSTAR,MEAN_MOTION_DOT,MEAN_MOTION_DDOT
NPSAT1,2019-036B,2026-05-17T20:45:32.162112,14.74272702,.0007675,23.9991,55.1936,225.9782,134.0082,0,U,44340,999,36801,.50483E-3,.3662E-4,0
FORMOSAT 7-3,2019-036E,2026-05-17T18:43:59.692800,15.09549850,.000043,24.0000,27.7748,289.2995,70.7462,0,U,44343,999,37864,.16408E-3,.3047E-4,0
FORMOSAT 7-1,2019-036L,2026-05-17T08:58:17.526144,14.96368726,.00008197,23.9973,240.1085,148.7875,211.2674,0,U,44349,999,38003,.11696308E-3,.1659E-4,0
FORMOSAT 7-4,2019-036M,2026-05-17T17:30:38.487168,14.96363546,.0000958,23.9987,299.8140,177.6657,182.3848,0,U,44350,999,37950,.12054E-3,.17E-4,0
FORMOSAT 7-2,2019-036N,2026-05-17T21:14:53.566080,14.96361528,.0000552,23.9993,353.0771,174.2798,185.7709,0,U,44351,999,37904,.12901E-3,.1798E-4,0
FORMOSAT 7-6,2019-036Q,2026-05-17T10:02:34.938816,14.96369506,.0001446,23.9962,177.0415,100.3204,259.7460,0,U,44353,999,37720,.10214941E-3,.1487E-4,0
FORMOSAT 7-5,2019-036V,2026-05-17T14:18:02.208960,14.96369647,.0000505,23.9977,114.5935,148.2118,211.8413,0,U,44358,999,37776,.11065E-3,.1586E-4,0
METEOR-M2 2,2019-038A,2026-05-17T21:33:27.517824,14.24356437,.0002364,98.9132,124.7385,94.7104,265.4345,0,U,44387,999,35698,-.36148E-4,-.129E-5,0
GLOBAL-4,2019-054E,2026-05-17T03:23:25.830816,15.61318100,.00039059,45.0077,55.1139,142.8622,217.2545,0,U,44499,999,37550,.47012656E-3,.40788E-3,0
ZY-1 02D,2019-059A,2026-05-17T21:17:35.839104,14.35449058,.000116,98.3206,200.4419,152.8095,207.3153,0,U,44528,999,34999,.26983E-5,-.34E-6,0
TAURUS-1 (JINNIUZUO 1),2019-059C,2026-05-17T20:32:57.942816,14.71741962,.0009138,98.6392,300.8151,54.7834,305.4225,0,U,44530,999,35418,.81103E-3,.501E-4,0
ZHUHAI-1 03B,2019-060C,2026-05-17T20:07:36.007680,15.52308078,.0009466,97.5501,294.0145,73.9941,286.2353,0,U,44536,999,37161,.33537E-3,.20356E-3,0
ZHUHAI-1 03C,2019-060D,2026-05-17T19:09:27.567936,15.97879444,.0005573,97.5426,306.8615,299.5319,60.5402,0,U,44537,999,37240,.69936E-3,.31458E-2,.42414E-4
ZHUHAI-1 03D,2019-060E,2026-05-17T20:36:07.011936,15.47938752,.0007911,97.5364,286.4238,60.9650,299.2391,0,U,44538,999,37138,.37298E-3,.19398E-3,0
ZHUHAI-1 03E,2019-060F,2026-05-17T20:16:19.557120,15.40005298,.0007185,97.5578,286.7720,127.5386,232.6514,0,U,44539,999,37109,.29404E-3,.1166E-3,0
GAOFEN-7,2019-072A,2026-05-17T21:06:42.257664,15.21345400,.0017754,97.2444,200.4821,138.1806,222.0791,0,U,44703,999,36303,.12814E-3,.2814E-4,0
JILIN-1 GAOFEN 2A,2019-075A,2026-05-17T20:00:08.621568,15.38430170,.0006712,97.4966,220.9352,178.7754,181.3508,0,U,44777,999,36021,.27579E-3,.10378E-3,0
NINGXIA-1 1,2019-076A,2026-05-17T19:48:59.128704,14.02035820,.0010892,45.0067,315.5318,11.3279,348.7799,0,U,44779,999,33359,.32357E-4,-.8E-6,0
NINGXIA-1 5,2019-076E,2026-05-17T20:09:37.211328,14.02084184,.0010884,45.0064,314.8217,0.9498,359.1355,0,U,44783,999,33351,.10945E-3,.38E-6,0
KL-ALPHA A,2019-077A,2026-05-17T19:02:19.275360,13.56039470,.0010774,88.9268,225.8851,186.4975,173.6041,0,U,44785,999,32161,.644E-4,.57E-6,0
CARTOSAT-3,2019-081A,2026-05-17T19:03:44.636832,15.19215119,.0011071,97.4324,200.1453,255.5123,104.4883,0,U,44804,999,35885,.3242E-4,.615E-5,0
JILIN-1 GAOFEN 2B,2019-086A,2026-05-17T19:25:30.955584,15.20336564,.0015545,97.4890,209.9977,69.6297,290.6606,0,U,44836,999,35587,.22223E-3,.4778E-4,0
TIANQIN 1 (CAS-6),2019-093A,2026-05-17T20:14:43.044864,14.95271272,.0012131,97.7803,221.9066,148.7809,211.4135,0,U,44879,999,34751,.20601E-3,.2213E-4,0
ETRSS-1,2019-093B,2026-05-17T20:36:45.077184,14.95682321,.0012399,97.7831,222.3550,147.9592,212.2385,0,U,44880,999,34752,.20606E-3,.2237E-4,0
TIANYAN 01,2019-093C,2026-05-17T19:41:56.298336,14.86464364,.0013421,97.7541,210.7925,180.6705,179.4495,0,U,44881,999,34690,.9942E-4,.826E-5,0
TIANYAN 02,2019-093D,2026-05-17T20:50:30.891840,15.04812495,.0015151,97.7928,232.3798,124.5641,235.7017,0,U,44882,999,34805,.3549E-3,.496E-4,0
CBERS 4A,2019-093E,2026-05-17T20:00:37.290816,14.81655002,.0000527,97.7511,206.0441,323.5159,36.6018,0,U,44883,999,34658,.1447E-3,.1088E-4,0
WEILAI 1R,2019-093F,2026-05-17T20:17:59.001792,15.00355902,.0015948,97.7841,227.6978,129.4733,230.7904,0,U,44884,999,34787,.26809E-3,.3312E-4,0
