{"n":44340,"c":9,"l1":"1 44340U 2019-036 26137.86495558  0.00003662  00000-0  504830-4 0  9997","l2":"2 44340  23.9991  55.1936 0007675 225.9782 134.0082 14.74272702368011","nm":"NPSAT1"},{"n":44343,"c":9,"l1":"1 44343U 2019-036 26137.78055199  0.00003047  00000-0  164080-4 0  9990","l2":"2 44343  24.0000  27.7748 0000430 289.2995  70.7462 15.09549850378642","nm":"FORMOSAT 7-3"},{"n":44349,"c":9,"l1":"1 44349U 2019-036 26137.37381396  0.00001659  00000-0  116963-4 0  9996","l2":"2 44349  23.9973 240.1085 0000820 148.7875 211.2674 14.96368726380038","nm":"FORMOSAT 7-1"},{"n":44350,"c":9,"l1":"1 44350U 2019-036 26137.72961212  0.00001700  00000-0  120540-4 0  9991","l2":"2 44350  23.9987 299.8140 0000958 177.6657 182.3848 14.96363546379505","nm":"FORMOSAT 7-4"},{"n":44351,"c":9,"l1":"1 44351U 2019-036 26137.88534220  0.00001798  00000-0  129010-4 0  9992","l2":"2 44351  23.9993 353.0771 0000552 174.2798 185.7709 14.96361528379045","nm":"FORMOSAT 7-2"},{"n":44353,"c":9,"l1":"1 44353U 2019-036 26137.41845993  0.00001487  00000-0  102149-4 0  9994","l2":"2 44353  23.9962 177.0415 0001446 100.3204 259.7460 14.96369506377203","nm":"FORMOSAT 7-6"},{"n":44358,"c":9,"l1":"1 44358U 2019-036 26137.59585889  0.00001586  00000-0  110650-4 0  9999","l2":"2 44358  23.9977 114.5935 0000505 148.2118 211.8413 14.96369647377761","nm":"FORMOSAT 7-5"},{"n":44387,"c":3,"l1":"1 44387U 2019-038 26137.89823515 -0.00000129  00000-0 -361480-5 0  9991","l2":"2 44387  98.9132 124.7385 0002364  94.7104 265.4345 14.24356437356989","nm":"METEOR-M2 2"},{"n":44499,"c":9,"l1":"1 44499U 2019-054 26137.14127118  0.00040788  00000-0  470127-4 0  9998","l2":"2 44499  45.0077  55.1139 0003906 142.8622 217.2545 15.61318100375504","nm":"GLOBAL-4"},{"n":44528,"c":9,"l1":"1 44528U 2019-059 26137.88722036 -0.00000034  00000-0  269830-6 0  9997","l2":"2 44528  98.3206 200.4419 0001160 152.8095 207.3153 14.35449058349999","nm":"ZY-1 02D"},{"n":44530,"c":9,"l1":"1 44530U 2019-059 26137.85622618  0.00005010  00000-0  811030-4 0  9993","l2":"2 44530  98.6392 300.8151 0009138  54.7834 305.4225 14.71741962354189","nm":"TAURUS-1 (JINNIUZUO 1)"},{"n":44536,"c":9,"l1":"1 44536U 2019-060 26137.83861119  0.00020356  00000-0  335370-4 0  9998","l2":"2 44536  97.5501 294.0145 0009466  73.9941 286.2353 15.52308078371610","nm":"ZHUHAI-1 03B"},{"n":44537,"c":9,"l1":"1 44537U 2019-060 26137.79823573  0.00314580  424140-5  699360-4 0  9993","l2":"2 44537  97.5426 306.8615 0005573 299.5319  60.5402 15.97879444372406","nm":"ZHUHAI-1 03C"},{"n":44538,"c":9,"l1":"1 44538U 2019-060 26137.85841448  0.00019398  00000-0  372980-4 0  9997","l2":"2 44538  97.5364 286.4238 0007911  60.9650 299.2391 15.47938752371385","nm":"ZHUHAI-1 03D"},{"n":44539,"c":9,"l1":"1 44539U 2019-060 26137.84467080  0.00011660  00000-0  294040-4 0  9997","l2":"2 44539  97.5578 286.7720 0007185 127.5386 232.6514 15.40005298371090","nm":"ZHUHAI-1 03E"},{"n":44703,"c":9,"l1":"1 44703U 2019-072 26137.87965575  0.00002814  00000-0  128140-4 0  9996","l2":"2 44703  97.2444 200.4821 0017754 138.1806 222.0791 15.21345400363031","nm":"GAOFEN-7"},{"n":44777,"c":9,"l1":"1 44777U 2019-075 26137.83343311  0.00010378  00000-0  275790-4 0  9992","l2":"2 44777  97.4966 220.9352 0006712 178.7754 181.3508 15.38430170360210","nm":"JILIN-1 GAOFEN 2A"},{"n":44779,"c":9,"l1":"1 44779U 2019-076 26137.82568435 -0.00000080  00000-0  323570-5 0  9991","l2":"2 44779  45.0067 315.5318 0010892  11.3279 348.7799 14.02035820333599","nm":"NINGXIA-1 1"},{"n":44783,"c":9,"l1":"1 44783U 2019-076 26137.84001402  0.00000038  00000-0  109450-4 0  9994","l2":"2 44783  45.0064 314.8217 0010884   0.9498 359.1355 14.02084184333512","nm":"NINGXIA-1 5"},{"n":44785,"c":9,"l1":"1 44785U 2019-077 26137.79327865  0.00000057  00000-0  644000-5 0  9992","l2":"2 44785  88.9268 225.8851 0010774 186.4975 173.6041 13.56039470321614","nm":"KL-ALPHA A"},{"n":44804,"c":9,"l1":"1 44804U 2019-081 26137.79426662  0.00000615  00000-0  324200-5 0  9991","l2":"2 44804  97.4324 200.1453 0011071 255.5123 104.4883 15.19215119358851","nm":"CARTOSAT-3"},{"n":44836,"c":9,"l1":"1 44836U 2019-086 26137.80938605  0.00004778  00000-0  222230-4 0  9991","l2":"2 44836  97.4890 209.9977 0015545  69.6297 290.6606 15.20336564355878","nm":"JILIN-1 GAOFEN 2B"},{"n":44879,"c":9,"l1":"1 44879U 2019-093 26137.84355375  0.00002213  00000-0  206010-4 0  9997","l2":"2 44879  97.7803 221.9066 0012131 148.7809 211.4135 14.95271272347516","nm":"TIANQIN 1 (CAS-6)"},{"n":44880,"c":9,"l1":"1 44880U 2019-093 26137.85885506  0.00002237  00000-0  206060-4 0  9995","l2":"2 44880  97.7831 222.3550 0012399 147.9592 212.2385 14.95682321347526","nm":"ETRSS-1"},{"n":44881,"c":9,"l1":"1 44881U 2019-093 26137.82079049  0.00000826  00000-0  994200-5 0  9993","l2":"2 44881  97.7541 210.7925 0013421 180.6705 179.4495 14.86464364346901","nm":"TIANYAN 01"},{"n":44882,"c":9,"l1":"1 44882U 2019-093 26137.86841309  0.00004960  00000-0  354900-4 0  9993","l2":"2 44882  97.7928 232.3798 0015151 124.5641 235.7017 15.04812495348054","nm":"TIANYAN 02"},{"n":44883,"c":9,"l1":"1 44883U 2019-093 26137.83376493  0.00001088  00000-0  144700-4 0  9991","l2":"2 44883  97.7511 206.0441 0000527 323.5159  36.6018 14.81655002346580","nm":"CBERS 4A"},{"n":44884,"c":9,"l1":"1 44884U 2019-093 26137.84582177  0.00003312  00000-0  268090-4 0  9992","l2":"2 44884  97.7841 227.6978 0015948 129.4733 230.7904 15.00355902347877","nm":"WEILAI 1R"}